[
    {
        "name": "מועצה אזורית רמת נגב",
        "name:he": "מועצה אזורית רמת נגב",
        "center": {
            "latitude": 30.7419506,
            "longitude": 34.7035078
        }
    },
    {
        "name": "מועצה אזורית מרחבים",
        "name:he": "מועצה אזורית מרחבים",
        "center": {
            "latitude": 31.3135151,
            "longitude": 34.626868
        }
    },
    {
        "name": "מועצה אזורית בני שמעון",
        "name:he": "מועצה אזורית בני שמעון",
        "center": {
            "latitude": 31.330699,
            "longitude": 34.7744019
        }
    },
    {
        "name": "مجلس إقليمي واحة الصحراء",
        "name:he": "מועצה אזורית נווה מדבר",
        "center": {
            "latitude": 31.1060011,
            "longitude": 34.8465161
        }
    },
    {
        "name": "מועצה אזורית תמר",
        "name:he": "מועצה אזורית תמר",
        "center": {
            "latitude": 31.1424576,
            "longitude": 35.2128997
        }
    },
    {
        "name": "מועצה אזורית הערבה התיכונה",
        "name:he": "מועצה אזורית הערבה התיכונה",
        "center": {
            "latitude": 30.6203552,
            "longitude": 35.1373378
        }
    },
    {
        "name": "מועצה אזורית חבל אילות",
        "name:he": "מועצה אזורית חבל אילות",
        "center": {
            "latitude": 29.9838214,
            "longitude": 34.8868394
        }
    },
    {
        "name": "מועצה אזורית מבואות החרמון",
        "name:he": "מועצה אזורית מבואות החרמון",
        "center": {
            "latitude": 33.0680771,
            "longitude": 35.5763466
        }
    },
    {
        "name": "מועצה אזורית גליל עליון",
        "name:he": "מועצה אזורית גליל עליון",
        "center": {
            "latitude": 33.075425,
            "longitude": 35.5244622
        }
    },
    {
        "name": "מועצה אזורית גולן",
        "name:he": "מועצה אזורית גולן",
        "center": {
            "latitude": 33.0088825,
            "longitude": 35.7541705
        }
    },
    {
        "name": "מועצה אזורית לכיש",
        "name:he": "מועצה אזורית לכיש",
        "center": {
            "latitude": 31.5398166,
            "longitude": 34.8083622
        }
    },
    {
        "name": "מועצה אזורית מטה יהודה",
        "name:he": "מועצה אזורית מטה יהודה",
        "center": {
            "latitude": 31.7299062,
            "longitude": 35.0226765
        }
    },
    {
        "name": "מועצה אזורית שפיר",
        "name:he": "מועצה אזורית שפיר",
        "center": {
            "latitude": 31.6255157,
            "longitude": 34.7326872
        }
    },
    {
        "name": "מועצה אזורית יואב",
        "name:he": "מועצה אזורית יואב",
        "center": {
            "latitude": 31.6849449,
            "longitude": 34.7914368
        }
    },
    {
        "name": "מועצה אזורית באר טוביה",
        "name:he": "מועצה אזורית באר טוביה",
        "center": {
            "latitude": 31.7380932,
            "longitude": 34.7007179
        }
    },
    {
        "name": "מועצה אזורית גדרות",
        "name:he": "מועצה אזורית גדרות",
        "center": {
            "latitude": 31.8201806,
            "longitude": 34.7285615
        }
    },
    {
        "name": "מועצה אזורית חבל יבנה",
        "name:he": "מועצה אזורית חבל יבנה",
        "center": {
            "latitude": 31.8436495,
            "longitude": 34.7164397
        }
    },
    {
        "name": "مجلس إقليمي بستان المرج",
        "name:he": "מועצה אזורית בוסתן-אל-מרג'",
        "center": {
            "latitude": 32.6288387,
            "longitude": 35.3835302
        }
    },
    {
        "name": "מועצה אזורית מגידו",
        "name:he": "מועצה אזורית מגידו",
        "center": {
            "latitude": 32.6075501,
            "longitude": 35.1511517
        }
    },
    {
        "name": "מועצה אזורית עמק הירדן",
        "name:he": "מועצה אזורית עמק הירדן",
        "center": {
            "latitude": 32.7826979,
            "longitude": 35.5531695
        }
    },
    {
        "name": "מועצה אזורית גלבוע",
        "name:he": "מועצה אזורית גלבוע",
        "center": {
            "latitude": 32.568478,
            "longitude": 35.377536
        }
    },
    {
        "name": "מועצה אזורית עמק יזרעאל",
        "name:he": "מועצה אזורית עמק יזרעאל",
        "center": {
            "latitude": 32.6826065,
            "longitude": 35.294781
        }
    },
    {
        "name": "מועצה אזורית עמק המעיינות",
        "name:he": "מועצה אזורית עמק המעיינות",
        "center": {
            "latitude": 32.5350735,
            "longitude": 35.4926382
        }
    },
    {
        "name": "מועצה אזורית נחל שורק",
        "name:he": "מועצה אזורית נחל שורק",
        "center": {
            "latitude": 31.7924595,
            "longitude": 34.8219096
        }
    },
    {
        "name": "מועצה אזורית גן רווה",
        "name:he": "מועצה אזורית גן רווה",
        "center": {
            "latitude": 31.9106908,
            "longitude": 34.7298629
        }
    },
    {
        "name": "מועצה אזורית ברנר",
        "name:he": "מועצה אזורית ברנר",
        "center": {
            "latitude": 31.8461738,
            "longitude": 34.7827691
        }
    },
    {
        "name": "מועצה אזורית גזר",
        "name:he": "מועצה אזורית גזר",
        "center": {
            "latitude": 31.8705058,
            "longitude": 34.9229306
        }
    },
    {
        "name": "מועצה אזורית חבל מודיעין",
        "name:he": "מועצה אזורית חבל מודיעין",
        "center": {
            "latitude": 31.984846,
            "longitude": 34.9646532
        }
    },
    {
        "name": "מועצה אזורית שדות דן",
        "name:he": "מועצה אזורית שדות דן",
        "center": {
            "latitude": 31.9845692,
            "longitude": 34.8580143
        }
    },
    {
        "name": "מועצה אזורית דרום השרון",
        "name:he": "מועצה אזורית דרום השרון",
        "center": {
            "latitude": 32.1398569,
            "longitude": 34.9434213
        }
    },
    {
        "name": "מועצה אזורית עמק חפר",
        "name:he": "מועצה אזורית עמק חפר",
        "center": {
            "latitude": 32.3620995,
            "longitude": 34.9466885
        }
    },
    {
        "name": "מועצה אזורית חוף השרון",
        "name:he": "מועצה אזורית חוף השרון",
        "center": {
            "latitude": 32.2168602,
            "longitude": 34.8476724
        }
    },
    {
        "name": "מועצה אזורית גליל תחתון",
        "name:he": "מועצה אזורית גליל תחתון",
        "center": {
            "latitude": 32.7503625,
            "longitude": 35.4234496
        }
    },
    {
        "name": "مجلس إقليمي البطوف",
        "name:he": "מועצה אזורית אל בטוף",
        "center": {
            "latitude": 32.8002737,
            "longitude": 35.3991702
        }
    },
    {
        "name": "מועצה אזורית משגב",
        "name:he": "מועצה אזורית משגב",
        "center": {
            "latitude": 32.8768845,
            "longitude": 35.261304
        }
    },
    {
        "name": "מועצה אזורית מרום הגליל",
        "name:he": "מועצה אזורית מרום הגליל",
        "center": {
            "latitude": 32.9744527,
            "longitude": 35.436884
        }
    },
    {
        "name": "מועצה אזורית מטה אשר",
        "name:he": "מועצה אזורית מטה אשר",
        "center": {
            "latitude": 32.9622042,
            "longitude": 35.1745315
        }
    },
    {
        "name": "מועצה אזורית זבולון",
        "name:he": "מועצה אזורית זבולון",
        "center": {
            "latitude": 32.7716211,
            "longitude": 35.1036898
        }
    },
    {
        "name": "מועצה אזורית לב השרון",
        "name:he": "מועצה אזורית לב השרון",
        "center": {
            "latitude": 32.2693374,
            "longitude": 34.9507731
        }
    },
    {
        "name": "מועצה אזורית חוף הכרמל",
        "name:he": "מועצה אזורית חוף הכרמל",
        "center": {
            "latitude": 32.6238427,
            "longitude": 34.9699376
        }
    },
    {
        "name": "מועצה אזורית מנשה",
        "name:he": "מועצה אזורית מנשה",
        "center": {
            "latitude": 32.4605308,
            "longitude": 35.0531275
        }
    },
    {
        "name": "מועצה אזורית מעלה יוסף",
        "name:he": "מועצה אזורית מעלה יוסף",
        "center": {
            "latitude": 33.0291657,
            "longitude": 35.2732351
        }
    },
    {
        "name": "מועצה אזורית אלונה",
        "name:he": "מועצה אזורית אלונה",
        "center": {
            "latitude": 32.5558895,
            "longitude": 35.020167
        }
    },
    {
        "name": "מועצה אזורית אשכול",
        "name:he": "מועצה אזורית אשכול",
        "center": {
            "latitude": 31.2542056,
            "longitude": 34.4458192
        }
    },
    {
        "name": "מועצה אזורית חוף אשקלון",
        "name:he": "מועצה אזורית חוף אשקלון",
        "center": {
            "latitude": 31.6562723,
            "longitude": 34.588577
        }
    },
    {
        "name": "מועצה אזורית שדות נגב",
        "name:he": "מועצה אזורית שדות נגב",
        "center": {
            "latitude": 31.4209254,
            "longitude": 34.5455418
        }
    },
    {
        "name": "מועצה אזורית שער הנגב",
        "name:he": "מועצה אזורית שער הנגב",
        "center": {
            "latitude": 31.5167192,
            "longitude": 34.6085714
        }
    },
    {
        "name": "מועצה אזורית שומרון",
        "name:he": "מועצה אזורית שומרון",
        "center": {
            "latitude": 32.2808544,
            "longitude": 35.1800997
        }
    },
    {
        "name": "مجلس إقليمي القيصوم",
        "name:he": "מועצה אזורית אל-קסום",
        "center": {
            "latitude": 31.2940381,
            "longitude": 34.9085819
        }
    }
]